{"type": "FeatureCollection", "features": [ {"type": "Feature", "properties": {"norad_id": 34736, "name": "COSMOS 2251 DEB", "group": "cosmos-2251-debris", "lat": -41.26876766813751, "lon": 22.9139738747979, "alt_km": 420.6627150798022, "timestamp": "2025-12-12T03:50:52.813426+00:00", "meta": {"OBJECT_NAME": "COSMOS 2251 DEB", "OBJECT_ID": "1993-036ZE", "EPOCH": "2025-12-11T12:30:45.529056", "MEAN_MOTION": 15.46488649, "ECCENTRICITY": 0.00172061, "INCLINATION": 74.0016, "RA_OF_ASC_NODE": 38.8949, "ARG_OF_PERICENTER": 348.4134, "MEAN_ANOMALY": 11.6678, "EPHEMERIS_TYPE": 0, "CLASSIFICATION_TYPE": "U", "NORAD_CAT_ID": 34736, "ELEMENT_SET_NO": 999, "REV_AT_EPOCH": 88429, "BSTAR": 0.012966163, "MEAN_MOTION_DOT": 0.00697379, "MEAN_MOTION_DDOT": 0}, "tle": {"line1": "1 34736U 93036ZE  25345.52136029  .00697379  00000+0  12966-1 0  9996", "line2": "2 34736  74.0016  38.8949 0017206 348.4134  11.6678 15.46488649884292"}}, "geometry": {"type": "Point", "coordinates": [22.9139738747979, -41.26876766813751]}}, {"type": "Feature", "properties": {"norad_id": 34738, "name": "COSMOS 2251 DEB", "group": "cosmos-2251-debris", "lat": 66.66990310033292, "lon": -173.99702209366387, "alt_km": 757.4495750218484, "timestamp": "2025-12-12T03:50:52.813436+00:00", "meta": {"OBJECT_NAME": "COSMOS 2251 DEB", "OBJECT_ID": "1993-036ZG", "EPOCH": "2025-12-11T11:03:14.448960", "MEAN_MOTION": 14.46298249, "ECCENTRICITY": 0.00473628, "INCLINATION": 74.0151, "RA_OF_ASC_NODE": 145.6567, "ARG_OF_PERICENTER": 292.1693, "MEAN_ANOMALY": 98.4213, "EPHEMERIS_TYPE": 0, "CLASSIFICATION_TYPE": "U", "NORAD_CAT_ID": 34738, "ELEMENT_SET_NO": 999, "REV_AT_EPOCH": 87840, "BSTAR": 0.0005858198, "MEAN_MOTION_DOT": 2.101e-05, "MEAN_MOTION_DDOT": 0}, "tle": {"line1": "1 34738U 93036ZG  25345.46058390  .00002101  00000+0  58582-3 0  9994", "line2": "2 34738  74.0151 145.6567 0047362 292.1693  98.4213 14.46298249878406"}}, "geometry": {"type": "Point", "coordinates": [-173.99702209366387, 66.66990310033292]}}, {"type": "Feature", "properties": {"norad_id": 34750, "name": "COSMOS 2251 DEB", "group": "cosmos-2251-debris", "lat": -18.57706104173798, "lon": 28.349497069069123, "alt_km": 673.502758589233, "timestamp": "2025-12-12T03:50:52.813447+00:00", "meta": {"OBJECT_NAME": "COSMOS 2251 DEB", "OBJECT_ID": "1993-036ZU", "EPOCH": "2025-12-11T01:20:17.687328", "MEAN_MOTION": 14.61292894, "ECCENTRICITY": 0.0038917, "INCLINATION": 74.1083, "RA_OF_ASC_NODE": 204.957, "ARG_OF_PERICENTER": 158.6163, "MEAN_ANOMALY": 351.9045, "EPHEMERIS_TYPE": 0, "CLASSIFICATION_TYPE": "U", "NORAD_CAT_ID": 34750, "ELEMENT_SET_NO": 999, "REV_AT_EPOCH": 88206, "BSTAR": 0.0015303152, "MEAN_MOTION_DOT": 7.615e-05, "MEAN_MOTION_DDOT": 0}, "tle": {"line1": "1 34750U 93036ZU  25345.05576027  .00007615  00000+0  15303-2 0  9993", "line2": "2 34750  74.1083 204.9570 0038917 158.6163 351.9045 14.61292894882066"}}, "geometry": {"type": "Point", "coordinates": [28.349497069069123, -18.57706104173798]}}, {"type": "Feature", "properties": {"norad_id": 34752, "name": "COSMOS 2251 DEB", "group": "cosmos-2251-debris", "lat": -71.14922368242526, "lon": -121.10721052132666, "alt_km": 595.1238265751963, "timestamp": "2025-12-12T03:50:52.813457+00:00", "meta": {"OBJECT_NAME": "COSMOS 2251 DEB", "OBJECT_ID": "1993-036ZW", "EPOCH": "2025-12-11T10:41:19.624128", "MEAN_MOTION": 14.99882801, "ECCENTRICITY": 0.00479, "INCLINATION": 74.0135, "RA_OF_ASC_NODE": 3.2389, "ARG_OF_PERICENTER": 132.0922, "MEAN_ANOMALY": 228.4354, "EPHEMERIS_TYPE": 0, "CLASSIFICATION_TYPE": "U", "NORAD_CAT_ID": 34752, "ELEMENT_SET_NO": 999, "REV_AT_EPOCH": 89830, "BSTAR": 0.0016697464, "MEAN_MOTION_DOT": 0.00021236, "MEAN_MOTION_DDOT": 0}, "tle": {"line1": "1 34752U 93036ZW  25345.44536602  .00021236  00000+0  16697-2 0  9995", "line2": "2 34752  74.0135   3.2389 0047900 132.0922 228.4354 14.99882801898303"}}, "geometry": {"type": "Point", "coordinates": [-121.10721052132666, -71.14922368242526]}}, {"type": "Feature", "properties": {"norad_id": 34754, "name": "COSMOS 2251 DEB", "group": "cosmos-2251-debris", "lat": -2.808467219611615, "lon": -132.1300005889947, "alt_km": 739.3226299264597, "timestamp": "2025-12-12T03:50:52.813467+00:00", "meta": {"OBJECT_NAME": "COSMOS 2251 DEB", "OBJECT_ID": "1993-036ZY", "EPOCH": "2025-12-11T01:30:21.281184", "MEAN_MOTION": 14.40477672, "ECCENTRICITY": 0.00295002, "INCLINATION": 74.0305, "RA_OF_ASC_NODE": 230.7044, "ARG_OF_PERICENTER": 347.1261, "MEAN_ANOMALY": 80.5102, "EPHEMERIS_TYPE": 0, "CLASSIFICATION_TYPE": "U", "NORAD_CAT_ID": 34754, "ELEMENT_SET_NO": 999, "REV_AT_EPOCH": 88109, "BSTAR": 0.00031324125, "MEAN_MOTION_DOT": 9.75e-06, "MEAN_MOTION_DDOT": 0}, "tle": {"line1": "1 34754U 93036ZY  25345.06274631  .00000975  00000+0  31324-3 0  9998", "line2": "2 34754  74.0305 230.7044 0029500 347.1261  80.5102 14.40477672881098"}}, "geometry": {"type": "Point", "coordinates": [-132.1300005889947, -2.808467219611615]}}, {"type": "Feature", "properties": {"norad_id": 34755, "name": "COSMOS 2251 DEB", "group": "cosmos-2251-debris", "lat": -63.55601739056258, "lon": -104.47266882675565, "alt_km": 789.0939558170367, "timestamp": "2025-12-12T03:50:52.813478+00:00", "meta": {"OBJECT_NAME": "COSMOS 2251 DEB", "OBJECT_ID": "1993-036ZZ", "EPOCH": "2025-12-11T14:55:03.161568", "MEAN_MOTION": 13.50554631, "ECCENTRICITY": 0.04083101, "INCLINATION": 73.9258, "RA_OF_ASC_NODE": 291.8222, "ARG_OF_PERICENTER": 311.8419, "MEAN_ANOMALY": 242.47, "EPHEMERIS_TYPE": 0, "CLASSIFICATION_TYPE": "U", "NORAD_CAT_ID": 34755, "ELEMENT_SET_NO": 999, "REV_AT_EPOCH": 82508, "BSTAR": 0.0023536952, "MEAN_MOTION_DOT": 2.517e-05, "MEAN_MOTION_DDOT": 0}, "tle": {"line1": "1 34755U 93036ZZ  25345.62156437  .00002517  00000+0  23537-2 0  9994", "line2": "2 34755  73.9258 291.8222 0408310 311.8419 242.4700 13.50554631825084"}}, "geometry": {"type": "Point", "coordinates": [-104.47266882675565, -63.55601739056258]}}, {"type": "Feature", "properties": {"norad_id": 34756, "name": "COSMOS 2251 DEB", "group": "cosmos-2251-debris", "lat": 15.347461672472429, "lon": -79.19326371469884, "alt_km": 1264.4356652753468, "timestamp": "2025-12-12T03:50:52.813488+00:00", "meta": {"OBJECT_NAME": "COSMOS 2251 DEB", "OBJECT_ID": "1993-036AAA", "EPOCH": "2025-12-11T14:45:00.607104", "MEAN_MOTION": 13.67238778, "ECCENTRICITY": 0.03449804, "INCLINATION": 74.0026, "RA_OF_ASC_NODE": 106.2197, "ARG_OF_PERICENTER": 342.2771, "MEAN_ANOMALY": 16.6544, "EPHEMERIS_TYPE": 0, "CLASSIFICATION_TYPE": "U", "NORAD_CAT_ID": 34756, "ELEMENT_SET_NO": 999, "REV_AT_EPOCH": 83406, "BSTAR": 0.0012772103, "MEAN_MOTION_DOT": 1.595e-05, "MEAN_MOTION_DDOT": 0}, "tle": {"line1": "1 34756U 93036AAA 25345.61459036  .00001595  00000+0  12772-2 0  9999", "line2": "2 34756  74.0026 106.2197 0344980 342.2771  16.6544 13.67238778834065"}}, "geometry": {"type": "Point", "coordinates": [-79.19326371469884, 15.347461672472429]}}, {"type": "Feature", "properties": {"norad_id": 34758, "name": "COSMOS 2251 DEB", "group": "cosmos-2251-debris", "lat": -62.76393600479623, "lon": -93.17559194101553, "alt_km": 1232.1383615772538, "timestamp": "2025-12-12T03:50:52.813498+00:00", "meta": {"OBJECT_NAME": "COSMOS 2251 DEB", "OBJECT_ID": "1993-036AAC", "EPOCH": "2025-12-11T06:58:07.203360", "MEAN_MOTION": 13.580618, "ECCENTRICITY": 0.03811247, "INCLINATION": 74.1076, "RA_OF_ASC_NODE": 301.8294, "ARG_OF_PERICENTER": 65.8978, "MEAN_ANOMALY": 298.1504, "EPHEMERIS_TYPE": 0, "CLASSIFICATION_TYPE": "U", "NORAD_CAT_ID": 34758, "ELEMENT_SET_NO": 999, "REV_AT_EPOCH": 82890, "BSTAR": 0.0018686561, "MEAN_MOTION_DOT": 2.154e-05, "MEAN_MOTION_DDOT": 0}, "tle": {"line1": "1 34758U 93036AAC 25345.29036115  .00002154  00000+0  18687-2 0  9997", "line2": "2 34758  74.1076 301.8294 0381124  65.8978 298.1504 13.58061800828901"}}, "geometry": {"type": "Point", "coordinates": [-93.17559194101553, -62.76393600479623]}}, {"type": "Feature", "properties": {"norad_id": 34760, "name": "COSMOS 2251 DEB", "group": "cosmos-2251-debris", "lat": 55.298594085045586, "lon": -32.23678811174785, "alt_km": 789.2294592603048, "timestamp": "2025-12-12T03:50:52.813527+00:00", "meta": {"OBJECT_NAME": "COSMOS 2251 DEB", "OBJECT_ID": "1993-036AAE", "EPOCH": "2025-12-11T14:51:40.656384", "MEAN_MOTION": 14.19564388, "ECCENTRICITY": 0.00967346, "INCLINATION": 74.0637, "RA_OF_ASC_NODE": 304.3591, "ARG_OF_PERICENTER": 356.7186, "MEAN_ANOMALY": 176.887, "EPHEMERIS_TYPE": 0, "CLASSIFICATION_TYPE": "U", "NORAD_CAT_ID": 34760, "ELEMENT_SET_NO": 999, "REV_AT_EPOCH": 86672, "BSTAR": 0.0010987487, "MEAN_MOTION_DOT": 2.404e-05, "MEAN_MOTION_DDOT": 0}, "tle": {"line1": "1 34760U 93036AAE 25345.61922056  .00002404  00000+0  10987-2 0  9997", "line2": "2 34760  74.0637 304.3591 0096734 356.7186 176.8870 14.19564388866724"}}, "geometry": {"type": "Point", "coordinates": [-32.23678811174785, 55.298594085045586]}}, {"type": "Feature", "properties": {"norad_id": 34761, "name": "COSMOS 2251 DEB", "group": "cosmos-2251-debris", "lat": -57.37220589287252, "lon": -22.71136963472637, "alt_km": 775.7831800784634, "timestamp": "2025-12-12T03:50:52.813539+00:00", "meta": {"OBJECT_NAME": "COSMOS 2251 DEB", "OBJECT_ID": "1993-036AAF", "EPOCH": "2025-12-11T11:26:06.766080", "MEAN_MOTION": 14.38042685, "ECCENTRICITY": 0.00363561, "INCLINATION": 74.0296, "RA_OF_ASC_NODE": 5.1194, "ARG_OF_PERICENTER": 39.5849, "MEAN_ANOMALY": 320.7949, "EPHEMERIS_TYPE": 0, "CLASSIFICATION_TYPE": "U", "NORAD_CAT_ID": 34761, "ELEMENT_SET_NO": 999, "REV_AT_EPOCH": 87631, "BSTAR": 0.00096427409, "MEAN_MOTION_DOT": 2.916e-05, "MEAN_MOTION_DDOT": 0}, "tle": {"line1": "1 34761U 93036AAF 25345.47646720  .00002916  00000+0  96427-3 0  9995", "line2": "2 34761  74.0296   5.1194 0036356  39.5849 320.7949 14.38042685876312"}}, "geometry": {"type": "Point", "coordinates": [-22.71136963472637, -57.37220589287252]}}]}